<?xml version="1.0" encoding="UTF-8"?>
<kml xmlns="http://www.opengis.net/kml/2.2" xmlns:gx="http://www.google.com/kml/ext/2.2"><Document><name>Ficticio</name><Placemark><name>Predio Ficticio Tres</name><MultiGeometry><Polygon><outerBoundaryIs><LinearRing><coordinates>-100.400000,20.600000 -100.397000,20.600000 -100.397000,20.603000 -100.400000,20.603000 -100.400000,20.600000</coordinates></LinearRing></outerBoundaryIs></Polygon><Polygon><outerBoundaryIs><LinearRing><coordinates>-100.395000,20.600000 -100.393000,20.600000 -100.393000,20.603000 -100.395000,20.603000 -100.395000,20.600000</coordinates></LinearRing></outerBoundaryIs></Polygon></MultiGeometry></Placemark></Document></kml>
