<?xml version="1.0" encoding="UTF-8"?>
<kml xmlns="http://www.opengis.net/kml/2.2" xmlns:gx="http://www.google.com/kml/ext/2.2"><Document><name>Ficticio</name><Placemark><name>Predio Ficticio Siete</name><Polygon><outerBoundaryIs><LinearRing><coordinates>-100.400000,20.600000 -100.396000,20.600000 -100.396000,20.604000 -100.400000,20.604000 -100.400000,20.600000</coordinates></LinearRing></outerBoundaryIs></Polygon></Placemark><Placemark><name>Camino interno</name><LineString><coordinates>-100.4,20.602 -100.396,20.602</coordinates></LineString></Placemark><Placemark><name>Acceso</name><Point><coordinates>-100.4,20.6</coordinates></Point></Placemark></Document></kml>
